GOES 1 (SMS-C) [-]      
1 08366U 75100A   22307.23106105 -.00000237  00000+0  00000+0 0  9999
2 08366   7.9451 293.9963 0003075 278.6119 190.0843  1.00252952171955
GOES 2 [-]              
1 10061U 77048A   22306.75778228 -.00000233  00000+0  00000+0 0  9990
2 10061   9.5418 305.6416 0011023  21.0392 336.0074  0.99401607110377
GOES 3 [-]              
1 10953U 78062A   22307.34061608 -.00000087  00000+0  00000+0 0  9997
2 10953   9.8794 310.2218 0002075 188.5486 214.8714  0.99364004115467
GOES 4 [-]              
1 11964U 80074A   22307.27508524 -.00000092  00000+0  00000+0 0  9997
2 11964  10.8486 314.0473 0031163  77.4973 301.3893  0.99232803114518
GOES 5 [-]              
1 12472U 81049A   22307.03994778 -.00000296  00000+0  00000+0 0  9995
2 12472  11.7225 325.5032 0001992 220.7084 163.3264  1.00283546109701
GOES 6 [-]              
1 14050U 83041A   22307.50614817 -.00000274  00000+0  00000+0 0  9994
2 14050  12.2983 330.8308 0003966 169.4033   9.7570  1.00266374202801
GOES 7 [-]              
1 17561U 87022A   22305.69654637  .00000052  00000+0  00000+0 0  9992
2 17561  14.1265 347.4264 0003768  73.4073 293.3865  0.99890014113741
GOES 8 [-]              
1 23051U 94022A   22305.83671010  .00000017  00000+0  00000+0 0  9992
2 23051  13.2942  23.2160 0003617  50.3958 314.6780  0.98903948111041
GOES 9 [-]              
1 23581U 95025A   22306.31809140  .00000002  00000+0  00000+0 0  9999
2 23581  12.7891  23.5879 0006814 126.0723 263.4712  0.98798097 99698
GOES 10 [-]             
1 24786U 97019A   22306.69910330 -.00000038  00000+0  00000+0 0  9997
2 24786  11.5770  29.8094 0027920 202.2796 150.6009  0.99120531 92956
GOES 11 [-]             
1 26352U 00022A   22306.39553434 -.00000067  00000+0  00000+0 0  9993
2 26352   8.9749  58.2054 0002660 167.6424 234.3772  0.99040891 39375
GOES 12 [-]             
1 26871U 01031A   22306.48872701  .00000062  00000+0  00000+0 0  9995
2 26871   9.7648  47.2620 0003585 306.3271  99.9298  0.99135022 77656
EWS-G1 (GOES 13) [+]    
1 29155U 06018A   22307.11507823  .00000031  00000+0  00000+0 0  9990
2 29155   0.9264  94.4437 0006667 132.2809 278.4351  1.00270033 60255
GOES 14 [B]             
1 35491U 09033A   22307.49893490 -.00000102  00000+0  00000+0 0  9999
2 35491   0.2721 265.4574 0018296 313.4557 259.2092  1.00272191 48906
GOES 15 [B]             
1 36411U 10008A   22307.52242093  .00000047  00000+0  00000+0 0  9994
2 36411   0.2310 279.7057 0003854 266.3870 276.3411  1.00272866 46402
GOES 16 [+]             
1 41866U 16071A   22307.51881528 -.00000256  00000+0  00000+0 0  9994
2 41866   0.0434 276.1354 0000622 337.3858 260.8424  1.00271101 21858
GOES 17 [+]             
1 43226U 18022A   22306.62042686  .00000090  00000+0  00000+0 0  9994
2 43226   0.0294 280.7236 0000428 276.5479 290.6440  1.00271417 17169
GOES 18 [+]             
1 51850U 22021A   22305.65690118  .00000090  00000+0  00000+0 0  9991
2 51850   0.0095  82.0046 0002233 142.5054 275.9891  1.00271347  2510
